[{"OBJECT_NAME":"STARLINK-31870","OBJECT_ID":"2024-093F","EPOCH":"2026-03-09T10:51:54.677952","MEAN_MOTION":15.27576119,"ECCENTRICITY":0.0002303,"INCLINATION":43.0031,"RA_OF_ASC_NODE":209.8538,"ARG_OF_PERICENTER":284.0443,"MEAN_ANOMALY":76.0153,"EPHEMERIS_TYPE":0,"CLASSIFICATION_TYPE":"U","NORAD_CAT_ID":59787,"ELEMENT_SET_NO":999,"REV_AT_EPOCH":10266,"BSTAR":0.00015361216,"MEAN_MOTION_DOT":3.967e-5,"MEAN_MOTION_DDOT":0},{"OBJECT_NAME":"COSMOS 2251 DEB","OBJECT_ID":"1993-036BXP","EPOCH":"2026-03-04T07:23:49.847712","MEAN_MOTION":15.24789556,"ECCENTRICITY":0.00190834,"INCLINATION":73.9759,"RA_OF_ASC_NODE":64.3004,"ARG_OF_PERICENTER":239.4537,"MEAN_ANOMALY":120.4779,"EPHEMERIS_TYPE":0,"CLASSIFICATION_TYPE":"U","NORAD_CAT_ID":47059,"ELEMENT_SET_NO":999,"REV_AT_EPOCH":9543,"BSTAR":0.0048704033,"MEAN_MOTION_DOT":0.00123422,"MEAN_MOTION_DDOT":0}]
